CCSDS_OEM_VERS = 1.0
CREATION_DATE  = 2017-05-11T11:21:55
ORIGINATOR     = GMAT USER

META_START
OBJECT_NAME          = MOPSSat_alt_35785_km_RAAN_90_152
OBJECT_ID            = SatId
CENTER_NAME          = Earth
REF_FRAME            = EME2000
TIME_SYSTEM          = UTC
START_TIME           = 2017-01-01T00:00:00.000
USEABLE_START_TIME   = 2017-01-01T00:00:00.000
USEABLE_STOP_TIME    = 2017-01-02T00:00:00.000
STOP_TIME            = 2017-01-02T00:00:00.000
INTERPOLATION        = Lagrange
INTERPOLATION_DEGREE = 7 
META_STOP


                                                                                   

2017-01-01T17:52:30.000   3.264439896341830e+04  -3.997125091604210e+04  -2.877855772449841e+02   9.755585371574765e-01   2.245101591338929e+00  -8.641392051318853e-03
2017-01-01T17:52:40.000   3.265414981459388e+04  -3.994879410423382e+04  -2.878719497075036e+02   9.746115096299274e-01   2.246260699562824e+00  -8.633098786237308e-03
2017-01-01T17:52:50.000   3.266389119097839e+04  -3.992632570084516e+04  -2.879582391974276e+02   9.736635809332601e-01   2.247419912415708e+00  -8.624797549898592e-03
2017-01-01T17:53:00.000   3.267362308347906e+04  -3.990384570500699e+04  -2.880444456343257e+02   9.727147501229167e-01   2.248579229749704e+00  -8.616488333923651e-03
2017-01-01T17:53:10.000   3.268334548297040e+04  -3.988135411590539e+04  -2.881305689374771e+02   9.717650162551904e-01   2.249738651413476e+00  -8.608171129940750e-03
2017-01-01T17:53:20.000   3.269305838051736e+04  -3.985885093226549e+04  -2.882166090278477e+02   9.708143783654389e-01   2.250898177278833e+00  -8.599845929394653e-03
2017-01-01T17:53:30.000   3.270276176715153e+04  -3.983633615286876e+04  -2.883025658261078e+02   9.698628354899138e-01   2.252057807214056e+00  -8.591512723737827e-03
2017-01-01T17:53:40.000   3.271245563392896e+04  -3.981380977641961e+04  -2.883884392531443e+02   9.689103866601338e-01   2.253217541090779e+00  -8.583171504381124e-03
2017-01-01T17:53:50.000   3.272213997177429e+04  -3.979127180190375e+04  -2.884742292286806e+02   9.679570309179859e-01   2.254377378765483e+00  -8.574822262826055e-03
2017-01-01T17:54:00.000   3.273181477160957e+04  -3.976872222829274e+04  -2.885599356724157e+02   9.670027673032759e-01   2.255537320094759e+00  -8.566464990555750e-03
2017-01-01T17:54:10.000   3.274148002432445e+04  -3.974616105461200e+04  -2.886455585037630e+02   9.660475948565920e-01   2.256697364931793e+00  -8.558099679060042e-03
2017-01-01T17:54:20.000   3.275113572078831e+04  -3.972358827991520e+04  -2.887310976419551e+02   9.650915126182431e-01   2.257857513127713e+00  -8.549726319826192e-03
2017-01-01T17:54:30.000   3.276078185185507e+04  -3.970100390327087e+04  -2.888165530060878e+02   9.641345196276722e-01   2.259017764532248e+00  -8.541344904333703e-03
2017-01-01T17:54:40.000   3.277041840837471e+04  -3.967840792373545e+04  -2.889019245152223e+02   9.631766149223073e-01   2.260178118995115e+00  -8.532955424044301e-03
2017-01-01T17:54:50.000   3.278004538119928e+04  -3.965580034034134e+04  -2.889872120884374e+02   9.622177975370773e-01   2.261338576366657e+00  -8.524557870397683e-03
2017-01-01T17:55:00.000   3.278966276119342e+04  -3.963318115206940e+04  -2.890724156449238e+02   9.612580665032171e-01   2.262499136499215e+00  -8.516152234801016e-03
2017-01-01T17:55:10.000   3.279927053920556e+04  -3.961055035791817e+04  -2.891575351037281e+02   9.602974208512044e-01   2.263659799243598e+00  -8.507738508654730e-03
2017-01-01T17:55:20.000   3.280886870619345e+04  -3.958790795660432e+04  -2.892425703848658e+02   9.593358595980128e-01   2.264820564464383e+00  -8.499316683240792e-03
2017-01-01T17:55:30.000   3.281845725307170e+04  -3.956525394692530e+04  -2.893275214079694e+02   9.583733817625364e-01   2.265981432021372e+00  -8.490886749857840e-03
2017-01-01T17:55:40.000   3.282803617076945e+04  -3.954258832762239e+04  -2.894123880928010e+02   9.574099863597636e-01   2.267142401776598e+00  -8.482448699770178e-03
2017-01-01T17:55:50.000   3.283760545000645e+04  -3.951991109791064e+04  -2.894971703572667e+02   9.564456724232955e-01   2.268303473567174e+00  -8.474002524404972e-03
2017-01-01T17:56:00.000   3.284716508151700e+04  -3.949722225694900e+04  -2.895818681194019e+02   9.554804389828315e-01   2.269464647232438e+00  -8.465548215155067e-03
2017-01-01T17:56:10.000   3.285671505599210e+04  -3.947452180397710e+04  -2.896664812968580e+02   9.545142850699702e-01   2.270625922606946e+00  -8.457085763429786e-03
2017-01-01T17:56:20.000   3.286625536423297e+04  -3.945180973795398e+04  -2.897510098082628e+02   9.535472097028809e-01   2.271787299538999e+00  -8.448615160520694e-03
2017-01-01T17:56:30.000   3.287578599702421e+04  -3.942908605785593e+04  -2.898354535720964e+02   9.525792118989316e-01   2.272948777875349e+00  -8.440136397712168e-03
2017-01-01T17:56:40.000   3.288530694516284e+04  -3.940635076260798e+04  -2.899198125069499e+02   9.516102906717768e-01   2.274110357464726e+00  -8.431649466255929e-03
2017-01-01T17:56:50.000   3.289481819944669e+04  -3.938360385110968e+04  -2.900040865314206e+02   9.506404450324291e-01   2.275272038156472e+00  -8.423154357380397e-03
2017-01-01T17:57:00.000   3.290431975066943e+04  -3.936084532224858e+04  -2.900882755640689e+02   9.496696739898535e-01   2.276433819799887e+00  -8.414651062295898e-03
2017-01-01T17:57:10.000   3.291381158960911e+04  -3.933807517492746e+04  -2.901723795233174e+02   9.486979765521216e-01   2.277595702242829e+00  -8.406139572204801e-03
2017-01-01T17:57:20.000   3.292329370702249e+04  -3.931529340807644e+04  -2.902563983273988e+02   9.477253517269042e-01   2.278757685331077e+00  -8.397619878305788e-03
2017-01-01T17:57:30.000   3.293276609363430e+04  -3.929250002068048e+04  -2.903403318942632e+02   9.467517985226755e-01   2.279919768906944e+00  -8.389091971804437e-03
2017-01-01T17:57:40.000   3.294222874016591e+04  -3.926969501171001e+04  -2.904241801418303e+02   9.457773159457273e-01   2.281081952812817e+00  -8.380555843887066e-03
2017-01-01T17:57:50.000   3.295168163721150e+04  -3.924687838042237e+04  -2.905079429868924e+02   9.448019030130991e-01   2.282244236875822e+00  -8.372011485833979e-03
2017-01-01T17:58:00.000   3.296112477538819e+04  -3.922405012599676e+04  -2.905916203464452e+02   9.438255587369241e-01   2.283406620926397e+00  -8.363458888882363e-03
2017-01-01T17:58:10.000   3.297055814528008e+04  -3.920121024766976e+04  -2.906752121371921e+02   9.428482821302364e-01   2.284569104791382e+00  -8.354898044277146e-03
2017-01-01T17:58:20.000   3.297998173765541e+04  -3.917835874421019e+04  -2.907587182774673e+02   9.418700721845005e-01   2.285731688320756e+00  -8.346328943074157e-03
2017-01-01T17:58:30.000   3.298939554324983e+04  -3.915549561444295e+04  -2.908421386853166e+02   9.408909278920119e-01   2.286894371360964e+00  -8.337751576336337e-03
2017-01-01T17:58:40.000   3.299879955281564e+04  -3.913262085713047e+04  -2.909254732789334e+02   9.399108482408358e-01   2.288057153760957e+00  -8.329165935089431e-03
2017-01-01T17:58:50.000   3.300819375699871e+04  -3.910973447126747e+04  -2.910087219755675e+02   9.389298322273671e-01   2.289220035357144e+00  -8.320572010431994e-03
2017-01-01T17:59:00.000   3.301757814643015e+04  -3.908683645586257e+04  -2.910918846923385e+02   9.379478788470396e-01   2.290383015984556e+00  -8.311969793454011e-03
2017-01-01T17:59:10.000   3.302695271172592e+04  -3.906392680993766e+04  -2.911749613462309e+02   9.369649870942678e-01   2.291546095476848e+00  -8.303359275236398e-03
2017-01-01T17:59:20.000   3.303631744339783e+04  -3.904100553274988e+04  -2.912579518533068e+02   9.359811559720245e-01   2.292709273655098e+00  -8.294740446934869e-03
2017-01-01T17:59:30.000   3.304567233197379e+04  -3.901807262349326e+04  -2.913408561297704e+02   9.349963844789863e-01   2.293872550342890e+00  -8.286113299667363e-03
2017-01-01T17:59:40.000   3.305501736795020e+04  -3.899512808141607e+04  -2.914236740915468e+02   9.340106716145778e-01   2.295035925360364e+00  -8.277477824558226e-03
2017-01-01T17:59:50.000   3.306435254200301e+04  -3.897217190530321e+04  -2.915064056561520e+02   9.330240163567318e-01   2.296199398550468e+00  -8.268834012543363e-03
2017-01-01T18:00:00.000   3.307367784477654e+04  -3.894920409399366e+04  -2.915890507408222e+02   9.320364176841160e-01   2.297362969752708e+00  -8.260181854564968e-03
2017-01-01T18:00:10.000   3.308299326693144e+04  -3.892622464626378e+04  -2.916716092629373e+02   9.310478745711204e-01   2.298526638809080e+00  -8.251521341527597e-03
2017-01-01T18:00:20.000   3.309229879902259e+04  -3.890323356112331e+04  -2.917540811389406e+02   9.300583860005284e-01   2.299690405548999e+00  -8.242852464409200e-03
2017-01-01T18:00:30.000   3.310159443159014e+04  -3.888023083759603e+04  -2.918364662851448e+02   9.290679509541420e-01   2.300854269800488e+00  -8.234175214178954e-03
2017-01-01T18:00:40.000   3.311088015515891e+04  -3.885721647471919e+04  -2.919187646177259e+02   9.280765684127279e-01   2.302018231390169e+00  -8.225489581796827e-03
2017-01-01T18:00:50.000   3.312015596015035e+04  -3.883419047176621e+04  -2.920009760519445e+02   9.270842373656745e-01   2.303182290132062e+00  -8.216795558298151e-03
2017-01-01T18:01:00.000   3.312942183700164e+04  -3.881115282794742e+04  -2.920831005032002e+02   9.260909567980256e-01   2.304346445842663e+00  -8.208093134680079e-03
2017-01-01T18:01:10.000   3.313867777611766e+04  -3.878810354252982e+04  -2.921651378866062e+02   9.250967256956698e-01   2.305510698334896e+00  -8.199382301946972e-03
2017-01-01T18:01:20.000   3.314792376808342e+04  -3.876504261430846e+04  -2.922470881188718e+02   9.241015430225235e-01   2.306675047444813e+00  -8.190663050910568e-03
2017-01-01T18:01:30.000   3.315715980345097e+04  -3.874197004213647e+04  -2.923289511164147e+02   9.231054077433918e-01   2.307839493004823e+00  -8.181935372390203e-03
